STARLINK-1648
1 46533U 20070B   26061.16668981  .00350411  00000+0  13729-2 0  9997
2 46533  53.0457 164.0990 0005742 279.1532 313.3226 15.85498459  6007
